[{"OBJECT_NAME":"SL-16 R/B","OBJECT_ID":"1993-059B","EPOCH":"2026-04-05T00:22:11.880192","MEAN_MOTION":14.17235099,"ECCENTRICITY":0.00170112,"INCLINATION":70.9905,"RA_OF_ASC_NODE":315.6135,"ARG_OF_PERICENTER":177.5347,"MEAN_ANOMALY":182.5864,"EPHEMERIS_TYPE":0,"CLASSIFICATION_TYPE":"U","NORAD_CAT_ID":22803,"ELEMENT_SET_NO":999,"REV_AT_EPOCH":68326,"BSTAR":9.2007913e-5,"MEAN_MOTION_DOT":1.38e-6,"MEAN_MOTION_DDOT":0},{"OBJECT_NAME":"ARIANE 40 R/B","OBJECT_ID":"1993-061H","EPOCH":"2026-04-05T03:56:28.832640","MEAN_MOTION":14.32876296,"ECCENTRICITY":0.00104171,"INCLINATION":98.4868,"RA_OF_ASC_NODE":163.523,"ARG_OF_PERICENTER":199.7517,"MEAN_ANOMALY":160.3265,"EPHEMERIS_TYPE":0,"CLASSIFICATION_TYPE":"U","NORAD_CAT_ID":22830,"ELEMENT_SET_NO":999,"REV_AT_EPOCH":69789,"BSTAR":0.00013221226,"MEAN_MOTION_DOT":3.18e-6,"MEAN_MOTION_DDOT":0},{"OBJECT_NAME":"COSMOS 2278","OBJECT_ID":"1994-023A","EPOCH":"2026-04-05T04:33:19.704096","MEAN_MOTION":14.14375005,"ECCENTRICITY":0.00093682,"INCLINATION":71.0504,"RA_OF_ASC_NODE":119.6562,"ARG_OF_PERICENTER":334.3951,"MEAN_ANOMALY":25.6707,"EPHEMERIS_TYPE":0,"CLASSIFICATION_TYPE":"U","NORAD_CAT_ID":23087,"ELEMENT_SET_NO":999,"REV_AT_EPOCH":64855,"BSTAR":4.0418748e-5,"MEAN_MOTION_DOT":3.0e-7,"MEAN_MOTION_DDOT":0},{"OBJECT_NAME":"SL-16 R/B","OBJECT_ID":"1994-023B","EPOCH":"2026-04-05T05:23:02.730624","MEAN_MOTION":14.15019934,"ECCENTRICITY":0.00056052,"INCLINATION":71.0031,"RA_OF_ASC_NODE":15.1611,"ARG_OF_PERICENTER":262.5818,"MEAN_ANOMALY":97.4667,"EPHEMERIS_TYPE":0,"CLASSIFICATION_TYPE":"U","NORAD_CAT_ID":23088,"ELEMENT_SET_NO":999,"REV_AT_EPOCH":64984,"BSTAR":9.3087754e-5,"MEAN_MOTION_DOT":1.33e-6,"MEAN_MOTION_DDOT":0},{"OBJECT_NAME":"SL-16 R/B","OBJECT_ID":"1994-074B","EPOCH":"2026-04-05T02:30:29.917152","MEAN_MOTION":14.79439979,"ECCENTRICITY":0.00077399,"INCLINATION":97.7069,"RA_OF_ASC_NODE":124.8479,"ARG_OF_PERICENTER":127.8653,"MEAN_ANOMALY":298.483,"EPHEMERIS_TYPE":0,"CLASSIFICATION_TYPE":"U","NORAD_CAT_ID":23343,"ELEMENT_SET_NO":999,"REV_AT_EPOCH":69115,"BSTAR":9.2106972e-5,"MEAN_MOTION_DOT":6.38e-6,"MEAN_MOTION_DDOT":0},{"OBJECT_NAME":"SL-16 R/B","OBJECT_ID":"1994-077B","EPOCH":"2026-04-05T06:23:24.144288","MEAN_MOTION":14.15567748,"ECCENTRICITY":0.0001531,"INCLINATION":70.9818,"RA_OF_ASC_NODE":296.578,"ARG_OF_PERICENTER":187.6991,"MEAN_ANOMALY":172.4108,"EPHEMERIS_TYPE":0,"CLASSIFICATION_TYPE":"U","NORAD_CAT_ID":23405,"ELEMENT_SET_NO":999,"REV_AT_EPOCH":61999,"BSTAR":-8.2774734e-5,"MEAN_MOTION_DOT":-2.1e-6,"MEAN_MOTION_DDOT":0},{"OBJECT_NAME":"ARIANE 40+ R/B","OBJECT_ID":"1995-021B","EPOCH":"2026-04-05T05:11:28.141152","MEAN_MOTION":14.39792961,"ECCENTRICITY":0.00077831,"INCLINATION":98.4453,"RA_OF_ASC_NODE":166.3335,"ARG_OF_PERICENTER":68.2152,"MEAN_ANOMALY":307.9976,"EPHEMERIS_TYPE":0,"CLASSIFICATION_TYPE":"U","NORAD_CAT_ID":23561,"ELEMENT_SET_NO":999,"REV_AT_EPOCH":62306,"BSTAR":0.00015068944,"MEAN_MOTION_DOT":4.29e-6,"MEAN_MOTION_DDOT":0},{"OBJECT_NAME":"SL-16 R/B","OBJECT_ID":"1995-058B","EPOCH":"2026-04-05T06:35:20.846112","MEAN_MOTION":14.15497863,"ECCENTRICITY":0.00103416,"INCLINATION":71.019,"RA_OF_ASC_NODE":124.4429,"ARG_OF_PERICENTER":77.0992,"MEAN_ANOMALY":283.1286,"EPHEMERIS_TYPE":0,"CLASSIFICATION_TYPE":"U","NORAD_CAT_ID":23705,"ELEMENT_SET_NO":999,"REV_AT_EPOCH":57161,"BSTAR":2.3806107e-5,"MEAN_MOTION_DOT":-1.0e-8,"MEAN_MOTION_DDOT":0},{"OBJECT_NAME":"SL-16 R/B","OBJECT_ID":"1996-051B","EPOCH":"2026-04-05T07:10:29.976384","MEAN_MOTION":14.12423581,"ECCENTRICITY":0.00130489,"INCLINATION":70.758,"RA_OF_ASC_NODE":118.9184,"ARG_OF_PERICENTER":104.2012,"MEAN_ANOMALY":256.0558,"EPHEMERIS_TYPE":0,"CLASSIFICATION_TYPE":"U","NORAD_CAT_ID":24298,"ELEMENT_SET_NO":999,"REV_AT_EPOCH":52540,"BSTAR":7.705972e-5,"MEAN_MOTION_DOT":9.3e-7,"MEAN_MOTION_DDOT":0},{"OBJECT_NAME":"ORBVIEW 2 (SEASTAR)","OBJECT_ID":"1997-037A","EPOCH":"2026-04-05T04:23:57.184800","MEAN_MOTION":14.35514802,"ECCENTRICITY":0.0002025,"INCLINATION":98.8613,"RA_OF_ASC_NODE":260.2035,"ARG_OF_PERICENTER":11.6558,"MEAN_ANOMALY":348.4673,"EPHEMERIS_TYPE":0,"CLASSIFICATION_TYPE":"U","NORAD_CAT_ID":24883,"ELEMENT_SET_NO":999,"REV_AT_EPOCH":51227,"BSTAR":0.00014999098,"MEAN_MOTION_DOT":3.85e-6,"MEAN_MOTION_DDOT":0},{"OBJECT_NAME":"SL-16 R/B","OBJECT_ID":"1998-043G","EPOCH":"2026-04-05T02:42:39.319776","MEAN_MOTION":14.26056237,"ECCENTRICITY":0.00089397,"INCLINATION":98.8299,"RA_OF_ASC_NODE":48.6711,"ARG_OF_PERICENTER":301.5398,"MEAN_ANOMALY":58.4908,"EPHEMERIS_TYPE":0,"CLASSIFICATION_TYPE":"U","NORAD_CAT_ID":25400,"ELEMENT_SET_NO":999,"REV_AT_EPOCH":44275,"BSTAR":5.6928156e-5,"MEAN_MOTION_DOT":9.1e-7,"MEAN_MOTION_DDOT":0},{"OBJECT_NAME":"SL-16 R/B","OBJECT_ID":"1998-045B","EPOCH":"2026-04-05T06:32:16.764864","MEAN_MOTION":14.16193801,"ECCENTRICITY":0.00082665,"INCLINATION":71.0089,"RA_OF_ASC_NODE":125.6733,"ARG_OF_PERICENTER":329.3382,"MEAN_ANOMALY":30.7257,"EPHEMERIS_TYPE":0,"CLASSIFICATION_TYPE":"U","NORAD_CAT_ID":25407,"ELEMENT_SET_NO":999,"REV_AT_EPOCH":43086,"BSTAR":9.1104075e-5,"MEAN_MOTION_DOT":1.33e-6,"MEAN_MOTION_DDOT":0},{"OBJECT_NAME":"ISS (ZARYA)","OBJECT_ID":"1998-067A","EPOCH":"2026-04-05T00:53:27.707136","MEAN_MOTION":15.4877812,"ECCENTRICITY":0.00062949,"INCLINATION":51.6327,"RA_OF_ASC_NODE":302.0967,"ARG_OF_PERICENTER":273.6206,"MEAN_ANOMALY":86.4063,"EPHEMERIS_TYPE":0,"CLASSIFICATION_TYPE":"U","NORAD_CAT_ID":25544,"ELEMENT_SET_NO":999,"REV_AT_EPOCH":56041,"BSTAR":0.00017854288,"MEAN_MOTION_DOT":9.326e-5,"MEAN_MOTION_DDOT":0},{"OBJECT_NAME":"CZ-4B R/B","OBJECT_ID":"1999-025C","EPOCH":"2026-04-05T02:53:25.693728","MEAN_MOTION":14.18270888,"ECCENTRICITY":0.00359826,"INCLINATION":98.6571,"RA_OF_ASC_NODE":138.7692,"ARG_OF_PERICENTER":268.7613,"MEAN_ANOMALY":149.2331,"EPHEMERIS_TYPE":0,"CLASSIFICATION_TYPE":"U","NORAD_CAT_ID":25732,"ELEMENT_SET_NO":999,"REV_AT_EPOCH":39191,"BSTAR":5.2384229e-5,"MEAN_MOTION_DOT":6.5e-7,"MEAN_MOTION_DDOT":0},{"OBJECT_NAME":"OKEAN-O","OBJECT_ID":"1999-039A","EPOCH":"2026-04-05T03:33:24.208704","MEAN_MOTION":14.80380631,"ECCENTRICITY":9.345e-5,"INCLINATION":97.9388,"RA_OF_ASC_NODE":154.7634,"ARG_OF_PERICENTER":105.3629,"MEAN_ANOMALY":254.7686,"EPHEMERIS_TYPE":0,"CLASSIFICATION_TYPE":"U","NORAD_CAT_ID":25860,"ELEMENT_SET_NO":999,"REV_AT_EPOCH":43830,"BSTAR":0.00012817262,"MEAN_MOTION_DOT":9.26e-6,"MEAN_MOTION_DDOT":0},{"OBJECT_NAME":"SL-16 R/B","OBJECT_ID":"1999-039B","EPOCH":"2026-04-05T04:05:52.824192","MEAN_MOTION":14.81770769,"ECCENTRICITY":0.00151382,"INCLINATION":97.9909,"RA_OF_ASC_NODE":154.2203,"ARG_OF_PERICENTER":166.4752,"MEAN_ANOMALY":193.6869,"EPHEMERIS_TYPE":0,"CLASSIFICATION_TYPE":"U","NORAD_CAT_ID":25861,"ELEMENT_SET_NO":999,"REV_AT_EPOCH":44078,"BSTAR":0.00011507232,"MEAN_MOTION_DOT":8.55e-6,"MEAN_MOTION_DDOT":0},{"OBJECT_NAME":"DELTA 2 R/B","OBJECT_ID":"1999-041E","EPOCH":"2026-04-04T23:42:56.534976","MEAN_MOTION":14.11899486,"ECCENTRICITY":0.05026311,"INCLINATION":51.761,"RA_OF_ASC_NODE":196.2234,"ARG_OF_PERICENTER":65.9837,"MEAN_ANOMALY":299.286,"EPHEMERIS_TYPE":0,"CLASSIFICATION_TYPE":"U","NORAD_CAT_ID":25876,"ELEMENT_SET_NO":999,"REV_AT_EPOCH":36674,"BSTAR":0.00016501072,"MEAN_MOTION_DOT":7.79e-6,"MEAN_MOTION_DDOT":0}]
